ONEWEB-0018             
1 45434U 20020L   24285.10518369 -.00000699  00000+0 -20068-2 0  9991
2 45434  87.8926 143.3888 0001745  81.2199 278.9127 13.11416460222159
ONEWEB-0083             
1 45435U 20020M   24285.17131488 -.00000399  00000+0 -11610-2 0  9992
2 45435  87.8927 143.3583 0001648  77.9875 282.1438 13.11414160222201
ONEWEB-0095             
1 45436U 20020N   24284.85778883 -.00000212  00000+0 -63519-3 0  9993
2 45436  87.8924 143.4519 0001265  50.1070 310.0169 13.11415762222159
ONEWEB-0092             
1 45437U 20020P   24284.90087218  .00000349  00000+0  94999-3 0  9990
2 45437  87.8926 143.4274 0001391  74.3342 285.7939 13.11422072222278
ONEWEB-0085             
1 45438U 20020Q   24284.85934685 -.00000256  00000+0 -75789-3 0  9999
2 45438  87.8927 143.4443 0001682  83.8369 276.2951 13.11412364222154
ONEWEB-0096             
1 45439U 20020R   24285.17300778 -.00000289  00000+0 -85133-3 0  9996
2 45439  87.8924 143.3508 0001690  88.3186 271.8136 13.11415160222196
ONEWEB-0037             
1 45440U 20020S   24284.84918161  .00000154  00000+0  40008-3 0  9993
2 45440  87.8918 143.3929 0001499  79.2764 280.8533 13.11414162222176
ONEWEB-0042             
1 45441U 20020T   24285.16270071  .00000022  00000+0  25968-4 0  9994
2 45441  87.8924 143.3658 0001629  85.1741 274.9573 13.11414135222199
